ELYSIUM STAR 2 & LFF    
1 43760U 18099C   24224.60061673  .00115712  00000+0  37013-2 0  9992
2 43760  97.5115 292.7176 0005364  92.3781 267.8075 15.31934895311707
